NORAD_CAT_ID,OBJECT_NAME,OBJECT_TYPE,EPOCH,MEAN_MOTION,ECCENTRICITY,INCLINATION,RA_OF_ASC_NODE,ARG_OF_PERICENTER,MEAN_ANOMALY,BSTAR,MEAN_MOTION_DOT,MEAN_MOTION_DDOT,TLE_LINE0,TLE_LINE1,TLE_LINE2,SEMIMAJOR_AXIS,PERIOD,APOGEE,PERIGEE,DECAYED
53606.0,STARLINK-4590,PAYLOAD,2023-02-25 11:52:34,15.0883591,8.26e-05,53.2162,169.1125,89.2065,270.9022,0.00099637,0.00015603,0.0,0 STARLINK-4590,1 53606U 22104U   23056.49484360  .00015603  00000-0  99637-3 0  9995,2 53606  53.2162 169.1125 0000826  89.2065 270.9022 15.08835910 28330,6917.893,95.438,540.329,539.186,0.0
53606.0,STARLINK-4590,PAYLOAD,2023-02-25 19:49:30,15.088525,0.0001101,53.2165,167.6249,57.4161,302.6937,0.001131,0.00017764,0.0,0 STARLINK-4590,1 53606U 22104U   23056.82604224  .00017764  00000-0  11310-2 0  9996,2 53606  53.2165 167.6249 0001101  57.4161 302.6937 15.08852500 28381,6917.842,95.437,540.469,538.946,0.0
53606.0,STARLINK-4590,PAYLOAD,2023-02-26 11:43:21,15.08858668,8.25e-05,53.2163,164.652,82.9744,277.1341,0.0012085,0.00019007,0.0,0 STARLINK-4590,1 53606U 22104U   23057.48844145  .00019007  00000-0  12085-2 0  9999,2 53606  53.2163 164.6520 0000825  82.9744 277.1341 15.08858668 28487,6917.823,95.436,540.259,539.118,0.0
53606.0,STARLINK-4590,PAYLOAD,2023-02-26 13:18:44,15.08864232,0.0001054,53.2163,164.355,86.4942,273.6171,0.0013074,0.00020594,0.0,0 STARLINK-4590,1 53606U 22104U   23057.55468078  .00020594  00000-0  13074-2 0  9996,2 53606  53.2163 164.3550 0001054  86.4942 273.6171 15.08864232 27925,6917.806,95.436,540.4,538.942,0.0
53606.0,STARLINK-4590,PAYLOAD,2023-02-26 19:40:16,15.08883511,0.0001022,53.2161,163.1641,76.5055,283.6051,0.0015879,0.00025104,0.0,0 STARLINK-4590,1 53606U 22104U   23057.81963375  .00025104  00000-0  15879-2 0  9992,2 53606  53.2161 163.1641 0001022  76.5055 283.6051 15.08883511 28538,6917.747,95.435,540.319,538.905,0.0
53606.0,STARLINK-4590,PAYLOAD,2023-02-27 00:26:25,15.08834607,6.35e-05,53.2163,162.273,192.8813,167.2163,-0.00051644,-8.496e-05,0.0,0 STARLINK-4590,1 53606U 22104U   23058.01835546 -.00008496  00000-0 -51644-3 0  9991,2 53606  53.2163 162.2730 0000635 192.8813 167.2163 15.08834607 27994,6917.897,95.438,540.201,539.323,0.0
53606.0,STARLINK-4590,PAYLOAD,2023-02-27 17:55:39,15.08935386,9.97e-05,53.2163,159.0003,108.2021,251.908,0.0070721,0.00114395,0.0,0 STARLINK-4590,1 53606U 22104U   23058.74699046  .00114395  00000-0  70721-2 0  9994,2 53606  53.2163 159.0003 0000997 108.2021 251.9080 15.08935386 28103,6917.589,95.432,540.144,538.764,0.0
53606.0,STARLINK-4590,PAYLOAD,2023-02-28 13:00:19,15.08830468,0.0001261,53.2178,155.4318,112.4504,247.6622,0.0014463,0.00022799,0.0,0 STARLINK-4590,1 53606U 22104U   23059.54188667  .00022799  00000-0  14463-2 0  9992,2 53606  53.2178 155.4318 0001261 112.4504 247.6622 15.08830468 28228,6917.91,95.438,540.647,538.902,0.0
53606.0,STARLINK-4590,PAYLOAD,2023-02-28 17:46:28,15.08837848,0.0001401,53.2178,154.5386,112.2932,247.8208,0.0013363,0.00021042,0.0,0 STARLINK-4590,1 53606U 22104U   23059.74060718  .00021042  00000-0  13363-2 0  9998,2 53606  53.2178 154.5386 0001401 112.2932 247.8208 15.08837848 28829,6917.887,95.438,540.721,538.783,0.0
53606.0,STARLINK-4590,PAYLOAD,2023-03-01 11:15:43,15.08844877,0.0001896,53.2183,151.265,113.8594,246.2597,0.00063586,9.848e-05,0.0,0 STARLINK-4590,1 53606U 22104U   23060.46924995  .00009848  00000-0  63586-3 0  9998,2 53606  53.2183 151.2650 0001896 113.8594 246.2597 15.08844877 28365,6917.865,95.437,541.042,538.419,0.0
53606.0,STARLINK-4590,PAYLOAD,2023-03-01 17:37:15,15.08852689,0.000191,53.218,150.0737,117.9959,242.1227,0.00087743,0.00013709,0.0,0 STARLINK-4590,1 53606U 22104U   23060.73420775  .00013709  00000-0  87743-3 0  9997,2 53606  53.2180 150.0737 0001910 117.9959 242.1227 15.08852689 28974,6917.842,95.437,541.028,538.385,0.0
53606.0,STARLINK-4590,PAYLOAD,2023-03-01 22:23:25,15.08833879,0.0001372,53.2184,149.1878,89.3431,270.7718,1.7873e-05,-3e-08,0.0,0 STARLINK-4590,1 53606U 22104U   23060.93293279 -.00000003  00000-0  17873-4 0  9998,2 53606  53.2184 149.1878 0001372  89.3431 270.7718 15.08833879 28435,6917.899,95.438,540.713,538.815,0.0
53606.0,STARLINK-4590,PAYLOAD,2023-03-02 11:06:30,15.08851284,0.0001223,53.2184,146.8095,79.8441,280.2689,0.0015081,0.00023802,0.0,0 STARLINK-4590,1 53606U 22104U   23061.46285006  .00023802  00000-0  15081-2 0  9994,2 53606  53.2184 146.8095 0001223  79.8441 280.2689 15.08851284 28512,6917.846,95.437,540.557,538.865,0.0
53606.0,STARLINK-4590,PAYLOAD,2023-03-03 09:21:53,15.08862426,0.0001626,53.2187,142.6492,113.5968,246.5195,0.00072631,0.00011297,0.0,0 STARLINK-4590,1 53606U 22104U   23062.39020265  .00011297  00000-0  72631-3 0  9991,2 53606  53.2187 142.6492 0001626 113.5968 246.5195 15.08862426 28659,6917.812,95.436,540.802,538.552,0.0
53606.0,STARLINK-4590,PAYLOAD,2023-03-03 10:57:16,15.08858417,0.0001463,53.2192,142.3536,98.3493,261.7665,0.00049684,7.632e-05,0.0,0 STARLINK-4590,1 53606U 22104U   23062.45644302  .00007632  00000-0  49684-3 0  9992,2 53606  53.2192 142.3536 0001463  98.3493 261.7665 15.08858417 29234,6917.824,95.436,540.701,538.677,0.0
53606.0,STARLINK-4590,PAYLOAD,2023-03-03 22:04:58,15.08865782,0.0001341,53.2184,140.2718,81.7909,278.3235,0.00052199,8.035e-05,0.0,0 STARLINK-4590,1 53606U 22104U   23062.92011672  .00008035  00000-0  52199-3 0  9995,2 53606  53.2184 140.2718 0001341  81.7909 278.3235 15.08865782 28731,6917.802,95.436,540.594,538.739,0.0
53606.0,STARLINK-4590,PAYLOAD,2023-03-04 13:58:49,15.08844738,0.0001946,53.2186,137.2951,86.9646,273.1569,0.00014789,2.067e-05,0.0,0 STARLINK-4590,1 53606U 22104U   23063.58252067  .00002067  00000-0  14789-3 0  9995,2 53606  53.2186 137.2951 0001946  86.9646 273.1569 15.08844738 28836,6917.866,95.437,541.077,538.385,0.0
53606.0,STARLINK-4590,PAYLOAD,2023-03-04 21:55:45,15.08816995,4.95e-05,53.2164,135.8108,142.7642,217.3384,-0.00083389,-0.00013526,0.0,0 STARLINK-4590,1 53606U 22104U   23063.91372069 -.00013526  00000-0 -83389-3 0  9993,2 53606  53.2164 135.8108 0000495 142.7642 217.3384 15.08816995 28889,6917.951,95.439,540.158,539.473,0.0
53606.0,STARLINK-4590,PAYLOAD,2023-03-05 04:17:18,15.08813033,4.75e-05,53.2167,134.62,140.9459,219.1568,-0.00063444,-0.00010363,0.0,0 STARLINK-4590,1 53606U 22104U   23064.17868611 -.00010363  00000-0 -63444-3 0  9991,2 53606  53.2167 134.6200 0000475 140.9459 219.1568 15.08813033 29498,6917.963,95.439,540.156,539.499,0.0
53606.0,STARLINK-4590,PAYLOAD,2023-03-05 21:46:33,15.08826366,9e-05,53.2163,131.3506,76.611,283.4982,0.00033293,5.013e-05,0.0,0 STARLINK-4590,1 53606U 22104U   23064.90733627  .00005013  00000-0  33293-3 0  9993,2 53606  53.2163 131.3506 0000900  76.6110 283.4982 15.08826366 29036,6917.922,95.438,540.41,539.164,0.0
53606.0,STARLINK-4590,PAYLOAD,2023-03-06 15:15:48,15.08850385,0.0001069,53.217,128.0759,104.81,255.3011,0.00074031,0.00011517,0.0,0 STARLINK-4590,1 53606U 22104U   23065.63597580  .00011517  00000-0  74031-3 0  9991,2 53606  53.2170 128.0759 0001069 104.8100 255.3011 15.08850385 29148,6917.849,95.437,540.453,538.974,0.0
53606.0,STARLINK-4590,PAYLOAD,2023-03-06 21:37:21,15.08835177,0.000117,53.2178,126.8868,98.7256,261.3868,0.00032716,4.922e-05,0.0,0 STARLINK-4590,1 53606U 22104U   23065.90094260  .00004922  00000-0  32716-3 0  9994,2 53606  53.2178 126.8868 0001170  98.7256 261.3868 15.08835177 29755,6917.895,95.438,540.57,538.951,0.0
53606.0,STARLINK-4590,PAYLOAD,2023-03-07 10:20:26,15.08858174,0.0001363,53.2178,124.5123,100.819,259.2955,0.00071756,0.00011156,0.0,0 STARLINK-4590,1 53606U 22104U   23066.43085736  .00011156  00000-0  71756-3 0  9995,2 53606  53.2178 124.5123 0001363 100.8190 259.2955 15.08858174 29261,6917.825,95.436,540.633,538.747,0.0
53606.0,STARLINK-4590,PAYLOAD,2023-03-07 15:06:34,15.08869306,0.0001091,53.2161,123.6172,106.5221,253.5891,0.00084499,0.00013196,0.0,0 STARLINK-4590,1 53606U 22104U   23066.62957041  .00013196  00000-0  84499-3 0  9997,2 53606  53.2161 123.6172 0001091 106.5221 253.5891 15.08869306 29864,6917.791,95.436,540.411,538.901,0.0
53606.0,STARLINK-4590,PAYLOAD,2023-03-08 03:49:40,15.08842072,0.0001802,53.2171,121.235,89.2963,270.8235,8.1412e-05,1.008e-05,0.0,0 STARLINK-4590,1 53606U 22104U   23067.15950102  .00001008  00000-0  81412-4 0  9999,2 53606  53.2171 121.2350 0001802  89.2963 270.8235 15.08842072 29378,6917.874,95.437,540.986,538.492,0.0
53606.0,STARLINK-4590,PAYLOAD,2023-03-08 14:57:21,15.08859973,0.0001208,53.2165,119.1544,101.0806,259.0322,0.00051883,7.983e-05,0.0,0 STARLINK-4590,1 53606U 22104U   23067.62317089  .00007983  00000-0  51883-3 0  9998,2 53606  53.2165 119.1544 0001208 101.0806 259.0322 15.08859973 29443,6917.819,95.436,540.52,538.849,0.0
53606.0,STARLINK-4590,PAYLOAD,2023-03-09 10:01:58,15.0885175,0.0001473,53.2162,115.5872,109.4305,250.6847,-0.00037276,-6.217e-05,0.0,0 STARLINK-4590,1 53606U 22104U   23068.41804169 -.00006217  00000-0 -37276-3 0  9997,2 53606  53.2162 115.5872 0001473 109.4305 250.6847 15.08851750 29561,6917.844,95.437,540.728,538.69,0.0
53606.0,STARLINK-4590,PAYLOAD,2023-03-09 19:34:18,15.08839668,0.0001571,53.2164,113.8027,78.5732,281.5436,0.00068088,0.00010565,0.0,0 STARLINK-4590,1 53606U 22104U   23068.81548655  .00010565  00000-0  68088-3 0  9990,2 53606  53.2164 113.8027 0001571  78.5732 281.5436 15.08839668 30197,6917.881,95.438,540.833,538.66,0.0
53606.0,STARLINK-4590,PAYLOAD,2023-03-10 01:55:50,15.08834867,0.0001689,53.2169,112.6132,82.1748,277.9436,0.001554,0.00024527,0.0,0 STARLINK-4590,1 53606U 22104U   23069.08044853  .00024527  00000-0  15540-2 0  9998,2 53606  53.2169 112.6132 0001689  82.1748 277.9436 15.08834867 29669,6917.896,95.438,540.93,538.593,0.0
53606.0,STARLINK-4590,PAYLOAD,2023-03-10 19:25:05,15.0884709,0.000135,53.2157,109.3456,93.6429,266.4718,0.00068978,0.00010709,0.0,0 STARLINK-4590,1 53606U 22104U   23069.80908620  .00010709  00000-0  68978-3 0  9990,2 53606  53.2157 109.3456 0001350  93.6429 266.4718 15.08847090 29776,6917.859,95.437,540.658,538.79,0.0
